STARLINK-5742           
1 55583U 23020Q   26041.33119284 -.00000451  00000+0 -18347-4 0  9995
2 55583  43.0026 153.3143 0001391 279.1865  80.8820 15.02536861164807
STARLINK-5736           
1 55584U 23020R   26041.32898968 -.00000879  00000+0 -49994-4 0  9994
2 55584  43.0031 153.3035 0001626 275.9780  84.0877 15.02529127164800
STARLINK-5769           
1 55585U 23020S   26040.29667484  .00000373  00000+0  42696-4 0  9996
2 55585  43.0050 146.3565 0003182 301.2843  58.7687 15.02538191164790
STARLINK-5767           
1 55586U 23020T   26040.39052654 -.00001175  00000+0 -71934-4 0  9995
2 55586  43.0016 158.2977 0001136 209.7951 150.2826 15.02527231164663
STARLINK-5727           
1 55587U 23020U   26041.32675583 -.00000843  00000+0 -47337-4 0  9993
2 55587  42.9974 153.2155 0001359 289.8707  70.1988 15.02525380164801
STARLINK-5728           
1 55588U 23020V   26040.64976756 -.00000090  00000+0  83963-5 0  9993
2 55588  43.0028 156.8028 0001566 257.0914 102.9754 15.02535231164709
STARLINK-5697           
1 55589U 23020W   26041.32009758 -.00000094  00000+0  81357-5 0  9998
2 55589  42.9997 153.2328 0001466 270.4690  89.5984 15.02535501164802
STARLINK-5762           
1 55590U 23020X   26041.30788558 -.00000141  00000+0  46091-5 0  9999
2 55590  43.0030 153.1414 0001700 265.9693  94.0955 15.02536807164801
STARLINK-5760           
1 55591U 23020Y   26041.38435467  .00000983  00000+0  87813-4 0  9995
2 55591  43.0003 152.8550 0001862 284.9518  75.1119 15.02536394164819
STARLINK-5759           
1 55592U 23020Z   26041.36992746  .00000445  00000+0  48030-4 0  9993
2 55592  43.0022 152.7447 0001435 265.7782  94.2896 15.02546181164810
STARLINK-5703           
1 55593U 23020AA  26041.31121618  .00000418  00000+0  46042-4 0  9992
2 55593  43.0021 153.1682 0001146 261.1056  98.9657 15.02536550164803
STARLINK-5750           
1 55594U 23020AB  26041.36659361  .00000628  00000+0  61571-4 0  9996
2 55594  43.0030 152.7257 0001426 271.8169  88.2510 15.02543363164812
STARLINK-5729           
1 55596U 23020AD  26040.63314619 -.00001893  00000+0 -12517-3 0  9993
2 55596  43.0007 156.6802 0000651 278.3931  81.6838 15.02515991164709
STARLINK-5743           
1 55597U 23020AE  26041.29050279  .00002273  00000+0  18324-3 0  9999
2 55597  43.0017 140.9072 0001109 235.4710 124.6028 15.02549266164941
STARLINK-5756           
1 55598U 23020AF  26041.30048846 -.00007282  00000+0 -52479-3 0  9995
2 55598  43.0009 140.9499 0002746 295.1098  64.9459 15.02513698164940
STARLINK-5761           
1 55599U 23020AG  26041.56307601 -.00000066  00000+0  10210-4 0  9991
2 55599  43.0020 139.4853 0000786 258.5408 101.5346 15.02536167164984
STARLINK-5755           
1 55600U 23020AH  26041.28495766 -.00000067  00000+0  10099-4 0  9999
2 55600  43.0025 140.8528 0001610 227.9532 132.1173 15.02533700164946
STARLINK-5744           
1 55601U 23020AJ  26040.36387687  .00000343  00000+0  40447-4 0  9996
2 55601  43.0023 158.0996 0001431 266.3479  93.7199 15.02537143164667
STARLINK-5764           
1 55602U 23020AK  26041.29494497  .00000526  00000+0  53943-4 0  9996
2 55602  42.9975 140.9073 0000971 242.7601 117.3142 15.02551565164947
STARLINK-5735           
1 55603U 23020AL  26040.75646965  .00001763  00000+0  14553-3 0  9993
2 55603  43.0042 143.7740 0001313 260.9736  99.0958 15.02543147164868
STARLINK-5748           
1 55604U 23020AM  26041.25747175  .00001189  00000+0  10304-3 0  9997
2 55604  43.0038 127.6418 0001185 283.3935  76.6775 15.02540285165098
STARLINK-5725           
1 55605U 23020AN  26041.28384852  .00000025  00000+0  16915-4 0  9993
2 55605  43.0016 140.8417 0000947 252.9428 107.1310 15.02533864164948
STARLINK-5700           
1 55607U 23020AQ  26041.27718581  .00000142  00000+0  25590-4 0  9993
2 55607  43.0034 140.7975 0001853 259.8836 100.1798 15.02536134164940
STARLINK-5726           
1 55608U 23020AR  26041.27496548  .00000415  00000+0  45754-4 0  9997
2 55608  42.9994 140.7777 0001077 235.3137 124.7603 15.02535577164942
STARLINK-5719           
1 55609U 23020AS  26041.28051752  .00000111  00000+0  23268-4 0  9992
2 55609  42.9991 140.8188 0001242 258.4861 101.5841 15.02532298164945
STARLINK-5722           
1 55610U 23020AT  26041.33367870 -.00000073  00000+0  96632-5 0  9995
2 55610  43.0030 140.3636 0001213 272.9426  87.1277 15.02533461164958
STARLINK-5730           
1 55611U 23020AU  26041.26497594  .00000643  00000+0  62666-4 0  9996
2 55611  43.0028 140.7062 0001337 256.0138 104.0556 15.02538395164942
STARLINK-5734           
1 55612U 23020AV  26041.26386707  .00000092  00000+0  21864-4 0  9993
2 55612  43.0046 140.6984 0001501 267.6951  92.3719 15.02537315164940
STARLINK-5714           
1 55614U 23020AX  26041.53447198  .00000028  00000+0  17164-4 0  9994
2 55614  43.0048 126.2356 0001632 265.5686  94.4970 15.02531852165138
STARLINK-5712           
1 55615U 23020AY  26041.32702015  .00000060  00000+0  19532-4 0  9991
2 55615  43.0037 140.3101 0001663 274.1383  85.9270 15.02531999164955
STARLINK-5710           
1 55616U 23020AZ  26041.31813928 -.00000501  00000+0 -22004-4 0  9997
2 55616  43.0012 140.2434 0000835 237.7323 122.3439 15.02532977164956
STARLINK-5721           
1 55617U 23020BA  26041.32368498  .00000197  00000+0  29657-4 0  9996
2 55617  43.0014 140.2827 0001148 258.7095 101.3618 15.02536470164950
STARLINK-5717           
1 55618U 23020BB  26041.58293782  .00000252  00000+0  33727-4 0  9993
2 55618  43.0043 138.7900 0001755 249.0159 111.0496 15.02530018164993
STARLINK-5720           
1 55619U 23020BC  26041.31369924  .00000626  00000+0  61428-4 0  9991
2 55619  43.0020 140.2103 0001294 267.5290  92.5404 15.02533960164958
STARLINK-5718           
1 55620U 23020BD  26041.24388795  .00000107  00000+0  22961-4 0  9995
2 55620  43.0015 140.5445 0001432 268.6602  91.4076 15.02536903164941
STARLINK-5709           
1 55621U 23020BE  26041.32146951 -.00002795  00000+0 -19186-3 0  9992
2 55621  43.0104 140.2792 0003914 301.6761  58.3700 15.02534759164958
STARLINK-5702           
1 55622U 23020BF  26041.30814774  .00000306  00000+0  37729-4 0  9994
2 55622  43.0023 140.1709 0001366 261.8262  98.2425 15.02537885164958
STARLINK-5698           
1 55623U 23020BG  26041.56961953  .00000100  00000+0  22467-4 0  9990
2 55623  43.0046 138.6915 0002125 263.7198  96.3403 15.02533249164997
STARLINK-5484           
1 55628U 23021A   26041.10143204  .00000869  00000+0  80666-4 0  9994
2 55628  69.9983 274.0995 0002706 267.8271  92.2578 14.98311553164167
STARLINK-5497           
1 55629U 23021B   26041.03883103  .00000091  00000+0  15395-4 0  9990
2 55629  69.9977 274.2848 0002489 271.0072  89.0801 14.98318888164154
STARLINK-5303           
1 55630U 23021C   26041.58336806  .00050235  00000+0  41904-2 0  9993
2 55630  70.0001 272.8602 0002925 263.8189 197.5526 14.98306025  5807
STARLINK-5558           
1 55631U 23021D   26041.07219887  .00000591  00000+0  57304-4 0  9990
2 55631  69.9978 273.9973 0002968 267.8906  92.1913 14.98330430164161
STARLINK-5546           
1 55632U 23021E   26041.08890307  .00001226  00000+0  11057-3 0  9994
2 55632  69.9982 274.0546 0002701 253.1270 106.9593 14.98310335164162
STARLINK-5498           
1 55633U 23021F   26041.08471798 -.00001409  00000+0 -11037-3 0  9997
2 55633  69.9980 274.0388 0002883 274.8547  85.2283 14.98321819164167
STARLINK-5500           
1 55634U 23021G   26041.02230509  .00000760  00000+0  71508-4 0  9992
2 55634  69.9984 274.2241 0002677 274.0242  86.0611 14.98320560164141
STARLINK-5495           
1 55635U 23021H   26041.00104531  .00000945  00000+0  87008-4 0  9993
2 55635  69.9972 254.2808 0002862 271.7155  88.3676 14.98330763164646
STARLINK-5218           
1 55636U 23021J   26041.07637579  .00000986  00000+0  90381-4 0  9997
2 55636  69.9980 274.0118 0002818 267.6698  92.4139 14.98333592164167
STARLINK-5062           
1 55637U 23021K   26041.01774064 -.00000269  00000+0 -14725-4 0  9997
2 55637  69.9980 254.3376 0002396 266.2942  93.7943 14.98315824164641
STARLINK-5507           
1 55638U 23021L   26041.08054752  .00000187  00000+0  23490-4 0  9996
2 55638  69.9982 274.0273 0002989 267.5224  92.5593 14.98328428164163
STARLINK-5508           
1 55639U 23021M   26040.99703121  .00000533  00000+0  52488-4 0  9991
2 55639  69.9971 254.2634 0002965 271.5298  88.5521 14.98331485164649
STARLINK-5069           
1 55640U 23021N   26041.59350630 -.00000884  00000+0 -66226-4 0  9999
2 55640  69.9956 252.7274 0004470 275.8889  84.1761 14.98347329164735
STARLINK-5065           
1 55641U 23021P   26041.02192659  .00000389  00000+0  40400-4 0  9997
2 55641  69.9971 254.3482 0002931 263.7160  96.3666 14.98329659164645
STARLINK-5483           
1 55643U 23021R   26041.03024711  .00000751  00000+0  70719-4 0  9992
2 55643  69.9996 254.3746 0001769 258.0676 102.0285 14.98340597164640
STARLINK-5502           
1 55644U 23021S   26041.00938702  .00000633  00000+0  60865-4 0  9994
2 55644  69.9969 254.3080 0002792 269.9714  90.1125 14.98331845164649
STARLINK-5510           
1 55647U 23021V   26040.97603385 -.00004865  00000+0 -40061-3 0  9996
2 55647  69.9978 254.1893 0002841 262.7235  97.3601 14.98290811164641
STARLINK-5501           
1 55648U 23021W   26040.93845528 -.00001320  00000+0 -10290-3 0  9994
2 55648  69.9972 254.4617 0002639 261.3338  98.7522 14.98327113164639
STARLINK-5469           
1 55649U 23021X   26041.58516712  .00001433  00000+0  12788-3 0  9994
2 55649  69.9955 252.7030 0004511 283.5573  76.5083 14.98328557164739
STARLINK-5494           
1 55650U 23021Y   26040.99686710  .00000333  00000+0  35673-4 0  9993
2 55650  69.9973 254.2623 0002807 270.4192  89.6646 14.98329928164647
STARLINK-5506           
1 55651U 23021Z   26041.01358757  .00007892  00000+0  66890-3 0  9996
2 55651  69.9971 254.3228 0003234 272.3801  87.6988 14.98305492164648
STARLINK-5487           
1 55652U 23021AA  26041.58934381  .00002507  00000+0  21781-3 0  9990
2 55652  70.0008 252.7226 0002394 217.1780 142.9214 14.98334179164733
